OBJECT_NAME,OBJECT_ID,EPOCH,MEAN_MOTION,ECCENTRICITY,INCLINATION,RA_OF_ASC_NODE,ARG_OF_PERICENTER,MEAN_ANOMALY,EPHEMERIS_TYPE,CLASSIFICATION_TYPE,NORAD_CAT_ID,ELEMENT_SET_NO,REV_AT_EPOCH,BSTAR,MEAN_MOTION_DOT,MEAN_MOTION_DDOT
INTELSAT 23 (IS-23),2012-057A,2026-07-15T02:25:24.621888,1.00273430,.0000378,0.0150,37.4174,151.4629,87.4414,0,U,38867,999,5023,0,-.294E-5,0
FM-6,2013-058A,2026-07-13T23:10:32.594592,1.00270909,.00013903,0.0142,33.4803,144.8411,344.7900,0,U,39360,999,4634,0,-.21E-6,0
INTELSAT 30 (IS-30),2014-062A,2026-07-15T02:39:07.972416,1.00269581,.0001302,0.0179,50.7701,335.3265,211.5942,0,U,40271,999,707,0,-.16E-5,0
DIRECTV 14,2014-078B,2026-07-15T02:38:00.580416,1.00271746,.0000389,0.0135,46.9408,291.2446,255.0349,0,U,40333,999,4232,0,-.135E-5,0
DIRECTV 15,2015-026A,2026-07-14T16:20:59.066880,1.00271323,.00000994,0.0176,71.4979,242.5429,120.8693,0,U,40663,999,4073,0,-.111E-5,0
SKY MEXICO-1,2015-026B,2026-07-15T02:43:45.027840,1.00270097,.000238,0.0168,37.7700,98.4023,118.9217,0,U,40664,999,4073,0,-.243E-5,0
INTELSAT 34 (IS-34),2015-039A,2026-07-14T06:18:31.912704,1.00271009,.00005547,0.0110,352.6276,9.3806,329.2648,0,U,40874,999,3990,0,-.292E-5,0
INTELSAT 31 (IS-31),2016-035A,2026-07-13T21:34:01.136064,1.00270917,.0001186,0.0229,276.7908,13.0074,230.4271,0,U,41581,999,3695,0,-.156E-5,0
INTELSAT 36 (IS-36),2016-053A,2026-07-15T04:22:22.086912,1.00270346,.0002403,0.0111,30.6042,308.7442,87.7508,0,U,41747,999,3623,0,-.33E-6,0
INTELSAT 32E (IS-32E),2017-007B,2026-07-15T04:14:38.823072,1.00266446,.000021,0.0232,53.6422,271.7559,348.1175,0,U,41945,999,3450,0,0,0
INTELSAT 35E (IS-35E),2017-041A,2026-07-15T02:56:25.256256,1.00266844,.0001662,0.0258,58.3427,52.7108,191.5252,0,U,42818,999,3309,0,0,0
INTELSAT 37E (IS-37E),2017-059A,2026-07-15T03:01:09.799968,1.00269756,.0002588,0.0178,44.9424,78.6131,196.6933,0,U,42950,999,3234,0,-.15E-5,0
AZERSPACE 2 (IS-38),2018-074A,2026-07-15T03:19:08.078016,1.00270804,.0001252,0.0171,54.9155,66.1262,266.8328,0,U,43632,999,2872,0,.127E-5,0
HORIZONS-3E,2018-074B,2026-07-13T15:21:38.465856,1.00270118,.00009408,0.0498,224.9289,53.6947,52.2963,0,U,43633,999,2860,0,-.35E-6,0
AT&T T-16,2019-034A,2026-07-14T19:46:46.069248,1.00268430,.00006162,0.0157,70.7114,248.2150,169.5701,0,U,44333,999,2591,0,-.123E-5,0
INTELSAT 39 (IS-39),2019-049B,2026-07-13T22:12:21.718368,1.00272225,.0000733,0.0241,49.4551,282.1376,355.2527,0,U,44476,999,2539,0,0,0
GALAXY 30 (G-30),2020-056C,2026-07-15T03:23:10.709952,1.00271782,.0001988,0.0150,53.2973,62.4110,103.0695,0,U,46114,999,2157,0,.28E-6,0
GALAXY 33 (G-33),2022-128A,2026-07-15T05:07:29.053344,1.00272268,.0001796,0.0134,35.3181,85.3018,116.3145,0,U,54026,999,1402,0,.69E-6,0
GALAXY 34 (G-34),2022-128B,2026-07-15T00:34:08.798016,1.00270740,.0001241,0.0143,36.8335,102.3316,33.2416,0,U,54027,999,1419,0,.5E-6,0
GALAXY 31 (G-31),2022-153A,2026-07-15T03:25:11.032320,1.00271152,.0000983,0.0153,73.3838,46.4827,103.4025,0,U,54243,999,741,0,.4E-7,0
GALAXY 32 (G-32),2022-153B,2026-07-15T02:40:15.364416,1.00269870,.0001428,0.0090,48.1859,1.0380,192.7879,0,U,54244,999,1342,0,-.183E-5,0
GALAXY 35 (G-35),2022-170A,2026-07-15T02:39:45.412128,1.00269918,.0001917,0.0188,72.0991,44.3463,123.3314,0,U,54741,999,1317,0,-.171E-5,0
GALAXY 36 (G-36),2022-170B,2026-07-15T02:40:52.804128,1.00270195,.0002398,0.0172,212.5391,248.0402,143.5963,0,U,54742,999,1305,0,-.194E-5,0
GALAXY 37 (G-37),2023-112A,2026-07-13T23:07:32.881728,1.00271325,.00017395,0.0218,73.5270,44.1230,34.0616,0,U,57493,999,1081,0,.42E-6,0
